[{"OBJECT_NAME":"STARLINK-3159","OBJECT_ID":"2021-104H","EPOCH":"2026-03-09T15:20:30.727392","MEAN_MOTION":15.08841039,"ECCENTRICITY":0.000111,"INCLINATION":53.2174,"RA_OF_ASC_NODE":219.3501,"ARG_OF_PERICENTER":90.4458,"MEAN_ANOMALY":269.6662,"EPHEMERIS_TYPE":0,"CLASSIFICATION_TYPE":"U","NORAD_CAT_ID":49415,"ELEMENT_SET_NO":999,"REV_AT_EPOCH":23875,"BSTAR":-2.3118e-5,"MEAN_MOTION_DOT":-6.56e-6,"MEAN_MOTION_DDOT":0},{"OBJECT_NAME":"OBJECT G","OBJECT_ID":"2026-027G","EPOCH":"2026-03-09T21:53:37.288032","MEAN_MOTION":15.12145257,"ECCENTRICITY":0.00120269,"INCLINATION":97.4906,"RA_OF_ASC_NODE":197.8999,"ARG_OF_PERICENTER":227.3105,"MEAN_ANOMALY":132.7114,"EPHEMERIS_TYPE":0,"CLASSIFICATION_TYPE":"U","NORAD_CAT_ID":67752,"ELEMENT_SET_NO":999,"REV_AT_EPOCH":389,"BSTAR":0.00053594907,"MEAN_MOTION_DOT":9.195e-5,"MEAN_MOTION_DDOT":0}]
